[{"OBJECT_NAME":"STARLINK-3374","OBJECT_ID":"2022-005J","EPOCH":"2026-03-09T21:28:49.885248","MEAN_MOTION":15.08858562,"ECCENTRICITY":0.00013555,"INCLINATION":53.2171,"RA_OF_ASC_NODE":288.1695,"ARG_OF_PERICENTER":94.1755,"MEAN_ANOMALY":265.9393,"EPHEMERIS_TYPE":0,"CLASSIFICATION_TYPE":"U","NORAD_CAT_ID":51112,"ELEMENT_SET_NO":999,"REV_AT_EPOCH":22891,"BSTAR":0.00015547156,"MEAN_MOTION_DOT":2.188e-5,"MEAN_MOTION_DDOT":0},{"OBJECT_NAME":"FENGYUN 1C DEB","OBJECT_ID":"1999-025BFB","EPOCH":"2026-03-07T22:39:13.230432","MEAN_MOTION":14.80895829,"ECCENTRICITY":0.01343541,"INCLINATION":99.2432,"RA_OF_ASC_NODE":124.2719,"ARG_OF_PERICENTER":346.3958,"MEAN_ANOMALY":13.3642,"EPHEMERIS_TYPE":0,"CLASSIFICATION_TYPE":"U","NORAD_CAT_ID":31057,"ELEMENT_SET_NO":999,"REV_AT_EPOCH":63213,"BSTAR":0.0011769904,"MEAN_MOTION_DOT":0.0001056,"MEAN_MOTION_DDOT":0}]
